{"type": "FeatureCollection", "features": [ {"type": "Feature", "properties": {"norad_id": 42987, "name": "SKYSAT-C11", "group": "resource", "lat": 50.487845249595054, "lon": 129.74040605902056, "alt_km": 417.2361196744132, "timestamp": "2025-12-26T23:26:41.811091+00:00", "meta": {"OBJECT_NAME": "SKYSAT-C11", "OBJECT_ID": "2017-068A", "EPOCH": "2025-12-26T15:28:06.129696", "MEAN_MOTION": 15.48052469, "ECCENTRICITY": 0.00011424, "INCLINATION": 97.415, "RA_OF_ASC_NODE": 138.4858, "ARG_OF_PERICENTER": 94.6994, "MEAN_ANOMALY": 265.4386, "EPHEMERIS_TYPE": 0, "CLASSIFICATION_TYPE": "U", "NORAD_CAT_ID": 42987, "ELEMENT_SET_NO": 999, "REV_AT_EPOCH": 45646, "BSTAR": 0.00044126098, "MEAN_MOTION_DOT": 0.00023044, "MEAN_MOTION_DDOT": 0}, "tle": {"line1": "1 42987U 17068A   25360.64451539  .00023044  00000+0  44126-3 0  9997", "line2": "2 42987  97.4150 138.4858 0001142  94.6994 265.4386 15.48052469456467"}}, "geometry": {"type": "Point", "coordinates": [129.74040605902056, 50.487845249595054]}}, {"type": "Feature", "properties": {"norad_id": 42988, "name": "SKYSAT-C10", "group": "resource", "lat": 51.40660628947163, "lon": 122.46423431761282, "alt_km": 463.2379157628584, "timestamp": "2025-12-26T23:26:41.811100+00:00", "meta": {"OBJECT_NAME": "SKYSAT-C10", "OBJECT_ID": "2017-068B", "EPOCH": "2025-12-26T07:32:29.639616", "MEAN_MOTION": 15.31865933, "ECCENTRICITY": 0.00035329, "INCLINATION": 97.4259, "RA_OF_ASC_NODE": 131.2058, "ARG_OF_PERICENTER": 75.9386, "MEAN_ANOMALY": 284.2248, "EPHEMERIS_TYPE": 0, "CLASSIFICATION_TYPE": "U", "NORAD_CAT_ID": 42988, "ELEMENT_SET_NO": 999, "REV_AT_EPOCH": 45587, "BSTAR": 0.00043148075, "MEAN_MOTION_DOT": 0.00013208, "MEAN_MOTION_DDOT": 0}, "tle": {"line1": "1 42988U 17068B   25360.31423194  .00013208  00000+0  43148-3 0  9992", "line2": "2 42988  97.4259 131.2058 0003532  75.9386 284.2248 15.31865933455873"}}, "geometry": {"type": "Point", "coordinates": [122.46423431761282, 51.40660628947163]}}, {"type": "Feature", "properties": {"norad_id": 42989, "name": "SKYSAT-C9", "group": "resource", "lat": 68.83502371836512, "lon": -28.985390232865505, "alt_km": 447.46469374452863, "timestamp": "2025-12-26T23:26:41.811109+00:00", "meta": {"OBJECT_NAME": "SKYSAT-C9", "OBJECT_ID": "2017-068C", "EPOCH": "2025-12-26T08:54:05.306400", "MEAN_MOTION": 15.36395186, "ECCENTRICITY": 0.00101854, "INCLINATION": 97.4193, "RA_OF_ASC_NODE": 130.7353, "ARG_OF_PERICENTER": 43.9303, "MEAN_ANOMALY": 316.2749, "EPHEMERIS_TYPE": 0, "CLASSIFICATION_TYPE": "U", "NORAD_CAT_ID": 42989, "ELEMENT_SET_NO": 999, "REV_AT_EPOCH": 45617, "BSTAR": 0.00038181732, "MEAN_MOTION_DOT": 0.00013502, "MEAN_MOTION_DDOT": 0}, "tle": {"line1": "1 42989U 17068C   25360.37089475  .00013502  00000+0  38182-3 0  9998", "line2": "2 42989  97.4193 130.7353 0010185  43.9303 316.2749 15.36395186456178"}}, "geometry": {"type": "Point", "coordinates": [-28.985390232865505, 68.83502371836512]}}, {"type": "Feature", "properties": {"norad_id": 42990, "name": "SKYSAT-C8", "group": "resource", "lat": -78.17641687671195, "lon": 169.59829675308416, "alt_km": 472.9176722666816, "timestamp": "2025-12-26T23:26:41.811118+00:00", "meta": {"OBJECT_NAME": "SKYSAT-C8", "OBJECT_ID": "2017-068D", "EPOCH": "2025-12-26T14:23:55.826880", "MEAN_MOTION": 15.33228179, "ECCENTRICITY": 9.515e-05, "INCLINATION": 97.4287, "RA_OF_ASC_NODE": 130.6632, "ARG_OF_PERICENTER": 257.2238, "MEAN_ANOMALY": 102.8898, "EPHEMERIS_TYPE": 0, "CLASSIFICATION_TYPE": "U", "NORAD_CAT_ID": 42990, "ELEMENT_SET_NO": 999, "REV_AT_EPOCH": 45583, "BSTAR": 0.0003895194, "MEAN_MOTION_DOT": 0.00012433, "MEAN_MOTION_DDOT": 0}, "tle": {"line1": "1 42990U 17068D   25360.59995170  .00012433  00000+0  38952-3 0  9999", "line2": "2 42990  97.4287 130.6632 0000951 257.2238 102.8898 15.33228179455830"}}, "geometry": {"type": "Point", "coordinates": [169.59829675308416, -78.17641687671195]}}, {"type": "Feature", "properties": {"norad_id": 42991, "name": "SKYSAT-C7", "group": "resource", "lat": 74.15109379235844, "lon": -20.563109825274264, "alt_km": 461.1394135256769, "timestamp": "2025-12-26T23:26:41.811127+00:00", "meta": {"OBJECT_NAME": "SKYSAT-C7", "OBJECT_ID": "2017-068E", "EPOCH": "2025-12-26T08:53:26.128320", "MEAN_MOTION": 15.32615619, "ECCENTRICITY": 0.00067856, "INCLINATION": 97.4296, "RA_OF_ASC_NODE": 131.4629, "ARG_OF_PERICENTER": 13.3039, "MEAN_ANOMALY": 346.838, "EPHEMERIS_TYPE": 0, "CLASSIFICATION_TYPE": "U", "NORAD_CAT_ID": 42991, "ELEMENT_SET_NO": 999, "REV_AT_EPOCH": 45586, "BSTAR": 0.00036174908, "MEAN_MOTION_DOT": 0.00011327, "MEAN_MOTION_DDOT": 0}, "tle": {"line1": "1 42991U 17068E   25360.37044130  .00011327  00000+0  36175-3 0  9993", "line2": "2 42991  97.4296 131.4629 0006785  13.3039 346.8380 15.32615619455864"}}, "geometry": {"type": "Point", "coordinates": [-20.563109825274264, 74.15109379235844]}}, {"type": "Feature", "properties": {"norad_id": 42992, "name": "SKYSAT-C6", "group": "resource", "lat": 2.037444400470836, "lon": -47.235510236317516, "alt_km": 475.6258551255778, "timestamp": "2025-12-26T23:26:41.811136+00:00", "meta": {"OBJECT_NAME": "SKYSAT-C6", "OBJECT_ID": "2017-068F", "EPOCH": "2025-12-25T20:01:06.090528", "MEAN_MOTION": 15.31757076, "ECCENTRICITY": 0.00047376, "INCLINATION": 97.4326, "RA_OF_ASC_NODE": 131.3522, "ARG_OF_PERICENTER": 46.8398, "MEAN_ANOMALY": 313.3239, "EPHEMERIS_TYPE": 0, "CLASSIFICATION_TYPE": "U", "NORAD_CAT_ID": 42992, "ELEMENT_SET_NO": 999, "REV_AT_EPOCH": 45576, "BSTAR": 0.00037471515, "MEAN_MOTION_DOT": 0.0001142, "MEAN_MOTION_DDOT": 0}, "tle": {"line1": "1 42992U 17068F   25359.83409827  .00011420  00000+0  37472-3 0  9996", "line2": "2 42992  97.4326 131.3522 0004737  46.8398 313.3239 15.31757076455768"}}, "geometry": {"type": "Point", "coordinates": [-47.235510236317516, 2.037444400470836]}}, {"type": "Feature", "properties": {"norad_id": 43111, "name": "CARTOSAT-2F", "group": "resource", "lat": 10.446024372836236, "lon": 57.004294083328766, "alt_km": 509.78272099245714, "timestamp": "2025-12-26T23:26:41.811145+00:00", "meta": {"OBJECT_NAME": "CARTOSAT-2F", "OBJECT_ID": "2018-004A", "EPOCH": "2025-12-26T15:29:42.401760", "MEAN_MOTION": 15.19263763, "ECCENTRICITY": 0.00015183, "INCLINATION": 97.4292, "RA_OF_ASC_NODE": 58.057, "ARG_OF_PERICENTER": 107.7284, "MEAN_ANOMALY": 252.4116, "EPHEMERIS_TYPE": 0, "CLASSIFICATION_TYPE": "U", "NORAD_CAT_ID": 43111, "ELEMENT_SET_NO": 999, "REV_AT_EPOCH": 44113, "BSTAR": 0.00040310686, "MEAN_MOTION_DOT": 8.435e-05, "MEAN_MOTION_DDOT": 0}, "tle": {"line1": "1 43111U 18004A   25360.64562965  .00008435  00000+0  40311-3 0  9993", "line2": "2 43111  97.4292  58.0570 0001518 107.7284 252.4116 15.19263763441131"}}, "geometry": {"type": "Point", "coordinates": [57.004294083328766, 10.446024372836236]}}, {"type": "Feature", "properties": {"norad_id": 43259, "name": "GAOFEN-1 02", "group": "resource", "lat": 71.91386641936975, "lon": -95.45172895838694, "alt_km": 632.6862253190293, "timestamp": "2025-12-26T23:26:41.811153+00:00", "meta": {"OBJECT_NAME": "GAOFEN-1 02", "OBJECT_ID": "2018-031A", "EPOCH": "2025-12-26T18:05:09.764736", "MEAN_MOTION": 14.7644479, "ECCENTRICITY": 0.0002688, "INCLINATION": 98.0783, "RA_OF_ASC_NODE": 58.5462, "ARG_OF_PERICENTER": 166.7224, "MEAN_ANOMALY": 193.4056, "EPHEMERIS_TYPE": 0, "CLASSIFICATION_TYPE": "U", "NORAD_CAT_ID": 43259, "ELEMENT_SET_NO": 999, "REV_AT_EPOCH": 41725, "BSTAR": 0.00017935, "MEAN_MOTION_DOT": 1.196e-05, "MEAN_MOTION_DDOT": 0}, "tle": {"line1": "1 43259U 18031A   25360.75358524  .00001196  00000+0  17935-3 0  9995", "line2": "2 43259  98.0783  58.5462 0002688 166.7224 193.4056 14.76444790417255"}}, "geometry": {"type": "Point", "coordinates": [-95.45172895838694, 71.91386641936975]}}, {"type": "Feature", "properties": {"norad_id": 43260, "name": "GAOFEN-1 03", "group": "resource", "lat": -41.92703509973224, "lon": -128.68233493147017, "alt_km": 646.2089852596027, "timestamp": "2025-12-26T23:26:41.811162+00:00", "meta": {"OBJECT_NAME": "GAOFEN-1 03", "OBJECT_ID": "2018-031B", "EPOCH": "2025-12-26T17:33:40.254624", "MEAN_MOTION": 14.76427295, "ECCENTRICITY": 0.0001656, "INCLINATION": 98.0779, "RA_OF_ASC_NODE": 58.4006, "ARG_OF_PERICENTER": 251.117, "MEAN_ANOMALY": 108.986, "EPHEMERIS_TYPE": 0, "CLASSIFICATION_TYPE": "U", "NORAD_CAT_ID": 43260, "ELEMENT_SET_NO": 999, "REV_AT_EPOCH": 41724, "BSTAR": 0.00016811, "MEAN_MOTION_DOT": 1.117e-05, "MEAN_MOTION_DDOT": 0}, "tle": {"line1": "1 43260U 18031B   25360.73171591  .00001117  00000+0  16811-3 0  9997", "line2": "2 43260  98.0779  58.4006 0001656 251.1170 108.9860 14.76427295417242"}}, "geometry": {"type": "Point", "coordinates": [-128.68233493147017, -41.92703509973224]}}, {"type": "Feature", "properties": {"norad_id": 43262, "name": "GAOFEN-1 04", "group": "resource", "lat": -8.745877552993614, "lon": 60.06798990852644, "alt_km": 644.5695850438797, "timestamp": "2025-12-26T23:26:41.811172+00:00", "meta": {"OBJECT_NAME": "GAOFEN-1 04", "OBJECT_ID": "2018-031D", "EPOCH": "2025-12-26T18:36:19.063296", "MEAN_MOTION": 14.76433724, "ECCENTRICITY": 4.77e-05, "INCLINATION": 98.0784, "RA_OF_ASC_NODE": 58.6143, "ARG_OF_PERICENTER": 62.8203, "MEAN_ANOMALY": 297.3055, "EPHEMERIS_TYPE": 0, "CLASSIFICATION_TYPE": "U", "NORAD_CAT_ID": 43262, "ELEMENT_SET_NO": 999, "REV_AT_EPOCH": 41724, "BSTAR": 0.00011609, "MEAN_MOTION_DOT": 7.56e-06, "MEAN_MOTION_DDOT": 0}, "tle": {"line1": "1 43262U 18031D   25360.77522064  .00000756  00000+0  11609-3 0  9996", "line2": "2 43262  98.0784  58.6143 0000477  62.8203 297.3055 14.76433724417241"}}, "geometry": {"type": "Point", "coordinates": [60.06798990852644, -8.745877552993614]}}]}